[{"OBJECT_NAME":"MINXSS-2","OBJECT_ID":"2018-099A","EPOCH":"2026-03-09T17:11:43.411488","MEAN_MOTION":15.40332084,"ECCENTRICITY":0.00075705,"INCLINATION":97.4625,"RA_OF_ASC_NODE":142.5474,"ARG_OF_PERICENTER":258.6187,"MEAN_ANOMALY":101.4208,"EPHEMERIS_TYPE":0,"CLASSIFICATION_TYPE":"U","NORAD_CAT_ID":43758,"ELEMENT_SET_NO":999,"REV_AT_EPOCH":39878,"BSTAR":0.00078488762,"MEAN_MOTION_DOT":0.00031693,"MEAN_MOTION_DDOT":0},{"OBJECT_NAME":"CONNECTA T1.2","OBJECT_ID":"2023-001D","EPOCH":"2026-03-09T17:19:18.981408","MEAN_MOTION":15.44466747,"ECCENTRICITY":0.00081044,"INCLINATION":97.3381,"RA_OF_ASC_NODE":138.0701,"ARG_OF_PERICENTER":103.5122,"MEAN_ANOMALY":256.703,"EPHEMERIS_TYPE":0,"CLASSIFICATION_TYPE":"U","NORAD_CAT_ID":55012,"ELEMENT_SET_NO":999,"REV_AT_EPOCH":17716,"BSTAR":0.00042958738,"MEAN_MOTION_DOT":0.00019849,"MEAN_MOTION_DDOT":0}]
