MINXSS-2                
1 43758U 18099A   26068.71647466  .00031693  00000+0  78489-3 0  9997
2 43758  97.4625 142.5474 0007571 258.6187 101.4208 15.40332084398787
CONNECTA T1.2           
1 55012U 23001D   26068.72174747  .00019849  00000+0  42959-3 0  9992
2 55012  97.3381 138.0701 0008104 103.5122 256.7030 15.44466747177166
